[{"OBJECT_ID":"2016-039B","OBJECT_NAME":"ECHOSTAR 18","NORAD_CAT_ID":"41592","OBJECT_TYPE":"PAYLOAD","PERIOD":"1436.199","INCLINATION":"0.0123","APOGEE":"35799.420","PERIGEE":"35777.797","ECCENTRICITY":"0.0002564","MEAN_MOTION":"1.00264608","TLE_LINE1":"1 41592U 16039B   16233.27279032 -.00000288 +00000-0 +00000-0 0  9996","TLE_LINE2":"2 41592 000.0123 096.1757 0002564 067.5832 196.2493 01.00264608000654","LAUNCH_DATE":"2016-06-18","LAUNCH_SITE":"FRENCH GUIANA","OWNER":"UNITED STATES OF AMERICA","ORBIT_TYPE":"Geosynchronous","OPERATIONAL_STATUS":"Operational","satInfo":{"lng":-86.43937812816111,"lat":2.2822408898104793,"elevation":-6.336934839242926,"azimuth":41.43937812816112,"range":42396.3277727662,"height":35792.56620826559,"velocity":3.074825397603873},"x":-344.98342896035814,"y":-23.253359104710228,"dx":0.19096074896276402,"dy":-3.068889899964708,"maxAlt":341.90192462492155,"minAlt":341.6942635364996},{"OBJECT_ID":"2016-050A","OBJECT_NAME":"JCSAT 16","NORAD_CAT_ID":"41729","OBJECT_TYPE":"PAYLOAD","PERIOD":"1436.074","INCLINATION":"0.0588","APOGEE":"35795.861","PERIGEE":"35776.465","ECCENTRICITY":"0.00023","MEAN_MOTION":"1.00273332","TLE_LINE1":"1 41729U 16050A   16238.84759331 -.00000228 +00000-0 +00000-0 0  9998","TLE_LINE2":"2 41729 000.0588 284.8956 0002300 245.1885 259.5796 01.00273332000178","LAUNCH_DATE":"2016-08-14","LAUNCH_SITE":"AIR FORCE EASTERN TEST RANGE","OWNER":"JAPAN","ORBIT_TYPE":"Geosynchronous","OPERATIONAL_STATUS":"Operational","satInfo":{"lng":-129.24841393955876,"lat":-0.9267111460275712,"elevation":-9.472319279166308,"azimuth":84.24841393955874,"range":42770.823340213945,"height":35815.02898793463,"velocity":3.073723252200834},"x":-268.2694329276034,"y":215.7107855041102,"dx":-1.9446951889064923,"dy":-2.380322510367874,"maxAlt":341.86774500998865,"minAlt":341.68147139064666}]